#aV2009  1 23  0  0   .00000000      96 DD+AD WGS84 FIT  NGA
## 1515 432000.00000000   900.00000000 54854  .0000000000000
+   31     2  3  4  5  6  7  8  9 10 11 12 13 14 15 16 17 18
+         19 20 21 22 23 24 25 26 27 28 29 30 31 32  0  0  0
+          0  0  0  0  0  0  0  0  0  0  0  0  0  0  0  0  0
+          0  0  0  0  0  0  0  0  0  0  0  0  0  0  0  0  0
+          0  0  0  0  0  0  0  0  0  0  0  0  0  0  0  0  0
++         0  0  0  0  0  0  0  0  0  0  0  0  0  0  0  0  0
++         0  0  0  0  0  0  0  0  0  0  0  0  0  0  0  0  0
++         0  0  0  0  0  0  0  0  0  0  0  0  0  0  0  0  0
++         0  0  0  0  0  0  0  0  0  0  0  0  0  0  0  0  0
++         0  0  0  0  0  0  0  0  0  0  0  0  0  0  0  0  0
%c cc cc ccc ccc cccc cccc cccc cccc ccccc ccccc ccccc ccccc
%c cc cc ccc ccc cccc cccc cccc cccc ccccc ccccc ccccc ccccc
%f  0.0000000  0.000000000  0.00000000000  0.000000000000000
%f  0.0000000  0.000000000  0.00000000000  0.000000000000000
%i    0    0    0    0      0      0      0      0         0
%i    0    0    0    0      0      0      0      0         0
/*      NGA, ST. LOUIS,MO.                                  
/*   EPHEMERIS COMPUTED FROM  3 DAYS OF DATA                
/* CCCCCCCCCCCCCCCCCCCCCCCCCCCCCCCCCCCCCCCCCCCCCCCCCCCCCCCCC
/* CCCCCCCCCCCCCCCCCCCCCCCCCCCCCCCCCCCCCCCCCCCCCCCCCCCCCCCCC
*  2009  1 23 14  0   .00000000                                                 
P  2 -13711.990063 -21706.797123  -7669.391221    160.307299                    
V  2   -506.625177  -9908.800372  29039.404432      -.016948                    
P  3  21090.832266  11056.335332 -12420.340973    342.930787                    
V  3 -15434.699050   1613.202596 -25034.231444       .052683                    
P  4  -4743.664474 -25421.240000   4988.626491   -310.064186                    
V  4   5606.342617   5052.919395  30672.948778      -.136206                    
P  5 -19799.971658  11540.780913  13023.145718   -585.145869                    
V  5   7659.139602 -15545.321606  24980.177623      -.515397                    
P  6  17154.518670  13635.013449 -14841.519002     82.916455                    
V  6 -19419.058943   -167.517926 -22293.466823      -.127351                    
P  7   9956.260490 -14034.426496 -20218.769014     23.179732                    
V  7   9371.930598  23904.433178 -12093.044397      -.001974                    
P  8   1649.477498 -23405.874424 -11999.483689   -187.551090                    
V  8   6087.973709  14174.647701 -27415.391757      -.015580                    
P  9 -16154.742748  -4034.098217  20078.871730     36.506552                    
V  9  -8762.407751 -25435.323987 -11683.300605       .020195                    
P 10 -12160.267736  -9345.476321 -21847.260763     -9.959708                    
V 10  18461.992207 -20204.067490  -1308.704200      -.006240                    
P 11  18384.737174    651.593153  19057.022512      9.696284                    
V 11  11235.630540  22221.729311 -11125.589948      -.011210                    
P 12 -20398.636076   7071.813894  15477.068062   -322.977945                    
V 12  11433.429705 -15969.118854  22574.253947       .034474                    
P 13  19237.873815  -6674.032403 -17165.482375    286.020904                    
V 13  20599.709928   6244.610030  20810.825066       .013897                    
P 14   1560.165897  15141.201812  21899.167376   -164.341036                    
V 14 -26791.378517  -5860.217418   5889.387540       .052424                    
P 15 -25725.680839  -6277.573583  -2326.944686   -246.369016                    
V 15   3452.933080  -2313.197234 -31459.540795      -.054988                    
P 16   6319.049142  14680.536087 -21114.196284     79.961257                    
V 16 -18671.468480  19480.222843   8149.709140      -.027118                    
P 17   1399.099031 -15271.170818  21742.328040     45.000131                    
V 17  26924.140870   5534.068093   1976.453304       .009912                    
P 18 -16602.736082  20371.169349   2285.005946    -90.331442                    
V 18  -4485.481047   -488.331341 -31445.448059       .036513                    
P 19  25780.001972   6895.328019     55.116578     33.465083                    
V 19   -716.244540   2641.787872 -31528.098842      -.004716                    
P 20  20694.378535 -10119.110384  13056.489707     92.868033                    
V 20  -8656.232225  14695.633557  24923.165283      -.011040                    
P 21  -7766.112830  17958.212720 -17449.693236     32.528665                    
V 21  -9400.895354 -21060.110908 -17884.427588      -.017829                    
P 22  -8163.521718  22019.308413  12509.220784    206.259666                    
V 22 -12759.880579   9561.732021 -25534.288763      -.005678                    
P 23  25154.161029  -1223.058685  -8904.157217    385.660062                    
V 23  10534.126656   4191.058074  29076.796521       .007492                    
P 24 -14856.927675   3923.341099 -21523.461945    159.814008                    
V 24  -7533.126509 -26652.605717    606.482224       .029868                    
P 25  12985.174305  -7384.676449 -21608.632357    193.745506                    
V 25  11764.948165  25709.087589  -1507.100102       .258788                    
P 26 -22867.702336 -11453.057296  -8628.072941     38.684295                    
V 26  10038.499972   1323.718652 -29646.806516       .032861                    
P 27  -5790.175561 -24978.669453  -6122.649062     18.649703                    
V 27   5640.682242   7039.944099 -30777.862763       .031944                    
P 28   9706.329859 -22028.227901  11255.146416    -23.688241                    
V 28  11115.558836  -8494.642519 -27542.912360       .000057                    
P 29 -20228.474773   6828.891247 -15676.424026    -16.012930                    
V 29 -19215.224716  -6260.996094  21958.377800       .030579                    
P 30 -18783.809269  17964.762630   4882.841345    121.614615                    
V 30   1686.443884  -7191.682723  30775.639449       .023791                    
P 31   6664.708978  25483.506884   3047.792511    -48.810878                    
V 31  -3611.201291  -2572.155000  31748.446703      -.013835                    
P 32  19335.621876   -967.551197  18490.296743    301.398449                    
V 32 -15271.877067  16879.409023  17468.631998      -.028981                    
EOF
